{"spkid": "20326290", "covariance": {"epoch": "2455927.5", "labels": ["e", "q", "tp", "node", "peri", "i", "A2"], "elements": [{"label": "e", "name": "e", "sigma": 3.4959326776869e-08, "units": null, "title": "eccentricity", "value": ".4404085447537104"}, {"label": "q", "title": "perihelion distance", "value": ".4913053164771018", "units": "au", "sigma": 3.06721291834291e-08, "name": "q"}, {"units": "TDB", "title": "time of perihelion passage", "value": "2455831.643524421373", "sigma": 5.1854126980686e-06, "name": "tp", "label": "tp"}, {"label": "node", "units": "deg", "value": "53.54823599258199", "title": "longitude of the ascending node", "sigma": 1.99619214523932e-05, "name": "om"}, {"label": "peri", "name": "w", "sigma": 1.99628551068662e-05, "value": "309.4350069511755", "title": "argument of perihelion", "units": "deg"}, {"label": "i", "units": "deg", "title": "inclination", "value": "3.378256459018627", "name": "i", "sigma": 3.05288982095791e-06}], "data": [["1.22215452869191E-15", "-1.072216917419238E-15", "-1.554573145268862E-13", "-8.028611750153023E-14", "5.351922425709532E-14", "1.830242397761994E-14", "-1.899573701824216E-24"], ["-1.072216917419238E-15", "9.407795086449649E-16", "1.366909839908803E-13", "6.653597112840149E-14", "-4.269135082846354E-14", "-1.538628138909006E-14", "1.442425275368547E-24"], ["-1.554573145268862E-13", "1.366909839908803E-13", "2.688850484929107E-11", "1.205290995709385E-11", "-1.144483371142075E-12", "-2.381267624473706E-12", "5.886404059743701E-22"], ["-8.028611750153023E-14", "6.653597112840149E-14", "1.205290995709385E-11", "3.984783080715146E-10", "-3.942263789516508E-10", "-3.748157863663547E-11", "1.295770135828618E-20"], ["5.351922425709532E-14", "-4.269135082846354E-14", "-1.144483371142075E-12", "-3.942263789516508E-10", "3.985155840177328E-10", "3.729379104919997E-11", "-1.262592859971704E-20"], ["1.830242397761994E-14", "-1.538628138909006E-14", "-2.381267624473706E-12", "-3.748157863663547E-11", "3.729379104919997E-11", "9.320136258908394E-12", "-1.78194339150542E-21"], ["-1.899573701824216E-24", "1.442425275368547E-24", "5.886404059743701E-22", "1.295770135828618E-20", "-1.262592859971704E-20", "-1.78194339150542E-21", "1.29455088029278E-30"]]}, "elements": [{"sigma": "3.4966E-8", "name": "e", "units": null, "value": ".440092494050138", "title": "eccentricity", "label": "e"}, {"label": "a", "value": ".8792880941728851", "title": "semi-major axis", "units": "au", "sigma": "5.7653E-10", "name": "a"}, {"value": ".4923200038197474", "title": "perihelion distance", "units": "au", "sigma": "3.0671E-8", "name": "q", "label": "q"}, {"label": "i", "value": "3.378928983751845", "title": "inclination; angle with respect to x-y ecliptic plane", "units": "deg", "name": "i", "sigma": "3.0379E-6"}, {"label": "node", "name": "om", "sigma": "1.9962E-5", "title": "longitude of the ascending node", "value": "53.39028727286377", "units": "deg"}, {"label": "peri", "name": "w", "sigma": "1.9971E-5", "title": "argument of perihelion", "value": "309.3556014479689", "units": "deg"}, {"label": "M", "units": "deg", "value": "302.8025137288896", "title": "mean anomaly", "sigma": "7.8846E-6", "name": "ma"}, {"label": "tp", "name": "tp", "sigma": "6.6078E-6", "units": "TDB", "title": "time of perihelion passage", "value": "2461248.348646562380"}, {"name": "per", "sigma": "2.962E-7", "units": "d", "value": "301.1585628223145", "title": "sidereal orbital period", "label": "period"}, {"label": "n", "sigma": "1.1757E-9", "name": "n", "title": "mean motion", "value": "1.195383576765182", "units": "deg/d"}, {"units": "au", "title": "aphelion distance", "value": "1.266256184526023", "sigma": "8.3026E-10", "name": "ad", "label": "Q"}], "epoch": "2461200.5"}